QIANFAN-17              
1 60395U 24140S   26027.65373397  .00000175  00000+0  25223-3 0  9993
2 60395  88.9783 294.6959 0016761  73.4489 286.8502 13.50990051 74339
QIANFAN-18              
1 60396U 24140T   26027.55907295  .00000151  00000+0  21441-3 0  9995
2 60396  88.9775 294.2360 0016015  58.2248 302.0461 13.50989910 73717
QIANFAN-19              
1 61552U 24185A   26027.57230461  .00000638  00000+0  32642-3 0  9990
2 61552  88.9775  72.6890 0008268 143.7207 216.4542 14.14350804 76147
QIANFAN-20              
1 61553U 24185B   26027.56900392  .00000671  00000+0  38021-3 0  9991
2 61553  88.9773  73.0595 0005875 174.6250 185.4998 14.08896399 75949
QIANFAN-21              
1 61554U 24185C   26027.60998358  .00000864  00000+0  37987-3 0  9990
2 61554  88.9691  71.6058 0009744 201.9693 158.1082 14.22680222 76495
QIANFAN-22              
1 61555U 24185D   26027.55074452  .00000323  00000+0  26795-3 0  9990
2 61555  88.9759  74.2274 0005724 197.4935 162.6040 13.86323040 75283
QIANFAN-23              
1 61556U 24185E   26027.55381507  .00000785  00000+0  38831-3 0  9999
2 61556  88.9767  72.4791 0008605 154.3217 205.8400 14.16348977 76239
QIANFAN-24              
1 61557U 24185F   26027.57402791  .00000862  00000+0  36994-3 0  9995
2 61557  88.9749  71.8067 0011016 139.1930 221.0089 14.23879365 76547
